COMMENT,ORIGINATOR,NORAD_CAT_ID,OBJECT_NAME,OBJECT_TYPE,CLASSIFICATION_TYPE,INTLDES,EPOCH,EPOCH_MICROSECONDS,MEAN_MOTION,ECCENTRICITY,INCLINATION,RA_OF_ASC_NODE,ARG_OF_PERICENTER,MEAN_ANOMALY,EPHEMERIS_TYPE,ELEMENT_SET_NO,REV_AT_EPOCH,BSTAR,MEAN_MOTION_DOT,MEAN_MOTION_DDOT,FILE,TLE_LINE0,TLE_LINE1,TLE_LINE2,OBJECT_ID,OBJECT_NUMBER,SEMIMAJOR_AXIS,PERIOD,APOGEE,PERIGEE,DECAYED,date
GENERATED VIA SPACETRACK.ORG API,18 SPCS,48890,SPACEBEE-104,PAYLOAD,U,21059M,2023/3/2 7:37,262560,15.24257472,0.0007992,97.5783,196.2597,285.4598,74.5756,0,999,9307,0.0013246,0.00032395,0,3849331,0 SPACEBEE-104,1 48890U 21059M   23061.31736415  .00032395  00000-0  13246-2 0  9998,2 48890  97.5783 196.2597 0007992 285.4598  74.5756 15.24257472 93079,2021-059M,48890,6871.153,94.472,498.509,487.527,0,
GENERATED VIA SPACETRACK.ORG API,18 SPCS,48890,SPACEBEE-104,PAYLOAD,U,21059M,2023/3/2 7:37,262560,15.24257472,0.0007992,97.5783,196.2597,285.4598,74.5756,0,999,9307,0.0013246,0.00032395,0,3849487,0 SPACEBEE-104,1 48890U 21059M   23061.31736415  .00032395  00000-0  13246-2 0  9998,2 48890  97.5783 196.2597 0007992 285.4598  74.5756 15.24257472 93079,2021-059M,48890,6871.153,94.472,498.509,487.527,0,
GENERATED VIA SPACETRACK.ORG API,18 SPCS,48890,SPACEBEE-104,PAYLOAD,U,21059M,2023/3/3 8:49,19936,15.24346908,0.0007941,97.5788,197.3221,281.9501,78.0845,0,999,9323,0.0018729,0.00046041,0,3849703,0 SPACEBEE-104,1 48890U 21059M   23062.36769699  .00046041  00000-0  18729-2 0  9998,2 48890  97.5788 197.3221 0007941 281.9501  78.0845 15.24346908 93238,2021-059M,48890,6870.884,94.467,498.205,487.293,0,
GENERATED VIA SPACETRACK.ORG API,18 SPCS,48890,SPACEBEE-104,PAYLOAD,U,21059M,2023/3/3 8:49,19936,15.24346908,0.0007941,97.5788,197.3221,281.9501,78.0845,0,999,9323,0.0018729,0.00046041,0,3850163,0 SPACEBEE-104,1 48890U 21059M   23062.36769699  .00046041  00000-0  18729-2 0  9998,2 48890  97.5788 197.3221 0007941 281.9501  78.0845 15.24346908 93238,2021-059M,48890,6870.884,94.467,498.205,487.293,0,
GENERATED VIA SPACETRACK.ORG API,18 SPCS,48890,SPACEBEE-104,PAYLOAD,U,21059M,2023/3/3 21:25,337984,15.24391537,0.0007945,97.579,197.8532,280.0604,79.9737,0,999,9331,0.0017139,0.0004216,0,3850400,0 SPACEBEE-104,1 48890U 21059M   23062.89283956  .00042160  00000-0  17139-2 0  9995,2 48890  97.5790 197.8532 0007945 280.0604  79.9737 15.24391537 93316,2021-059M,48890,6870.75,94.464,498.074,487.156,0,
GENERATED VIA SPACETRACK.ORG API,18 SPCS,48890,SPACEBEE-104,PAYLOAD,U,21059M,2023/3/4 8:27,921472,15.2443827,0.0007919,97.5788,198.3179,278.6066,81.4274,0,999,9338,0.0019859,0.00048975,0,3851072,0 SPACEBEE-104,1 48890U 21059M   23063.35232548  .00048975  00000-0  19859-2 0  9999,2 48890  97.5788 198.3179 0007919 278.6066  81.4274 15.24438270 93389,2021-059M,48890,6870.61,94.461,497.916,487.034,0,
GENERATED VIA SPACETRACK.ORG API,18 SPCS,48890,SPACEBEE-104,PAYLOAD,U,21059M,2023/3/4 14:45,898976,15.24461898,0.0007924,97.5789,198.5835,277.559,82.4746,0,999,9342,0.0019683,0.00048572,0,3851165,0 SPACEBEE-104,1 48890U 21059M   23063.61488309  .00048572  00000-0  19683-2 0  9994,2 48890  97.5789 198.5835 0007924 277.5590  82.4746 15.24461898 93429,2021-059M,48890,6870.539,94.46,497.848,486.96,0,
GENERATED VIA SPACETRACK.ORG API,18 SPCS,48890,SPACEBEE-104,PAYLOAD,U,21059M,2023/3/4 14:45,898976,15.24461898,0.0007924,97.5789,198.5835,277.559,82.4746,0,999,9342,0.0019683,0.00048572,0,3851350,0 SPACEBEE-104,1 48890U 21059M   23063.61488309  .00048572  00000-0  19683-2 0  9994,2 48890  97.5789 198.5835 0007924 277.5590  82.4746 15.24461898 93429,2021-059M,48890,6870.539,94.46,497.848,486.96,0,
GENERATED VIA SPACETRACK.ORG API,18 SPCS,48890,SPACEBEE-104,PAYLOAD,U,21059M,2023/3/5 14:23,412096,15.2455223,0.0007982,97.5789,199.5795,274.3187,85.7138,0,999,9357,0.0019831,0.00049074,0,3851939,0 SPACEBEE-104,1 48890U 21059M   23064.59943764  .00049074  00000-0  19831-2 0  9996,2 48890  97.5789 199.5795 0007982 274.3187  85.7138 15.24552230 93574,2021-059M,48890,6870.267,94.454,497.616,486.648,0,
GENERATED VIA SPACETRACK.ORG API,18 SPCS,48890,SPACEBEE-104,PAYLOAD,U,21059M,2023/3/5 20:41,653824,15.2457781,0.0007993,97.5791,199.8452,273.5761,86.4561,0,999,9361,0.0019311,0.00047814,0,3852049,0 SPACEBEE-104,1 48890U 21059M   23064.86197516  .00047814  00000-0  19311-2 0  9995,2 48890  97.5791 199.8452 0007993 273.5761  86.4561 15.24577810 93615,2021-059M,48890,6870.19,94.452,497.547,486.564,0,
GENERATED VIA SPACETRACK.ORG API,18 SPCS,48890,SPACEBEE-104,PAYLOAD,U,21059M,2023/3/5 22:15,413280,15.24585448,0.0008011,97.5786,199.9108,274.5209,85.5113,0,999,9362,0.0019942,0.000494,0,3852256,0 SPACEBEE-104,1 48890U 21059M   23064.92760895  .00049400  00000-0  19942-2 0  9991,2 48890  97.5786 199.9108 0008011 274.5209  85.5113 15.24585448 93628,2021-059M,48890,6870.168,94.452,497.536,486.529,0,
GENERATED VIA SPACETRACK.ORG API,18 SPCS,48890,SPACEBEE-104,PAYLOAD,U,21059M,2023/3/6 7:42,263264,15.24626845,0.0008014,97.5787,200.3099,272.003,88.029,0,999,9368,0.0019474,0.00048292,0,3853141,0 SPACEBEE-104,1 48890U 21059M   23065.32140351  .00048292  00000-0  19474-2 0  9993,2 48890  97.5787 200.3099 0008014 272.0030  88.0290 15.24626845 93680,2021-059M,48890,6870.043,94.449,497.414,486.403,0,
GENERATED VIA SPACETRACK.ORG API,18 SPCS,48890,SPACEBEE-104,PAYLOAD,U,21059M,2023/3/7 8:54,287936,15.24737841,0.0007973,97.5796,201.3723,268.4449,91.5875,0,999,9384,0.0021236,0.00052874,0,3853647,0 SPACEBEE-104,1 48890U 21059M   23066.37147324  .00052874  00000-0  21236-2 0  9996,2 48890  97.5796 201.3723 0007973 268.4449  91.5875 15.24737841 93846,2021-059M,48890,6869.71,94.442,497.052,486.098,0,
GENERATED VIA SPACETRACK.ORG API,18 SPCS,48890,SPACEBEE-104,PAYLOAD,U,21059M,2023/3/7 8:54,287936,15.24737841,0.0007973,97.5796,201.3723,268.4449,91.5875,0,999,9384,0.0021236,0.00052874,0,3854072,0 SPACEBEE-104,1 48890U 21059M   23066.37147324  .00052874  00000-0  21236-2 0  9996,2 48890  97.5796 201.3723 0007973 268.4449  91.5875 15.24737841 93846,2021-059M,48890,6869.71,94.442,497.052,486.098,0,
GENERATED VIA SPACETRACK.ORG API,18 SPCS,48890,SPACEBEE-104,PAYLOAD,U,21059M,2023/3/8 14:50,194112,15.24868595,0.0007915,97.5799,202.6342,264.3411,95.6924,0,999,9403,0.0024261,0.00060715,0,3854883,0 SPACEBEE-104,1 48890U 21059M   23067.61833558  .00060715  00000-0  24261-2 0  9999,2 48890  97.5799 202.6342 0007915 264.3411  95.6924 15.24868595 94033,2021-059M,48890,6869.317,94.434,496.619,485.745,0,
GENERATED VIA SPACETRACK.ORG API,18 SPCS,48890,SPACEBEE-104,PAYLOAD,U,21059M,2023/3/8 14:50,194112,15.24868595,0.0007915,97.5799,202.6342,264.3411,95.6924,0,999,9403,0.0024261,0.00060715,0,3855077,0 SPACEBEE-104,1 48890U 21059M   23067.61833558  .00060715  00000-0  24261-2 0  9999,2 48890  97.5799 202.6342 0007915 264.3411  95.6924 15.24868595 94033,2021-059M,48890,6869.317,94.434,496.619,485.745,0,
GENERATED VIA SPACETRACK.ORG API,18 SPCS,48890,SPACEBEE-104,PAYLOAD,U,21059M,2023/3/9 6:35,65056,15.24929028,0.0007966,97.58,203.2984,262.5014,97.5318,0,999,9413,0.0020965,0.00052494,0,3855631,0 SPACEBEE-104,1 48890U 21059M   23068.27453779  .00052494  00000-0  20965-2 0  9997,2 48890  97.5800 203.2984 0007966 262.5014  97.5318 15.24929028 94138,2021-059M,48890,6869.136,94.431,496.473,485.529,0,
GENERATED VIA SPACETRACK.ORG API,18 SPCS,48890,SPACEBEE-104,PAYLOAD,U,21059M,2023/3/9 22:20,298208,15.25002663,0.0008042,97.5798,203.9625,261.0162,99.0165,0,999,9423,0.0021353,0.00053594,0,3855951,0 SPACEBEE-104,1 48890U 21059M   23068.93070947  .00053594  00000-0  21353-2 0  9996,2 48890  97.5798 203.9625 0008042 261.0162  99.0165 15.25002663 94233,2021-059M,48890,6868.914,94.426,496.303,485.255,0,
GENERATED VIA SPACETRACK.ORG API,18 SPCS,48890,SPACEBEE-104,PAYLOAD,U,21059M,2023/3/10 7:47,825632,15.25053448,0.0008086,97.5808,204.3615,261.2467,98.7855,0,999,9429,0.0022663,0.00056999,0,3856437,0 SPACEBEE-104,1 48890U 21059M   23069.32439613  .00056999  00000-0  22663-2 0  9996,2 48890  97.5808 204.3615 0008086 261.2467  98.7855 15.25053448 94292,2021-059M,48890,6868.762,94.423,496.181,485.073,0,
GENERATED VIA SPACETRACK.ORG API,18 SPCS,48890,SPACEBEE-104,PAYLOAD,U,21059M,2023/3/10 20:22,132928,15.25104583,0.000808,97.5811,204.8937,261.0438,98.9885,0,999,9437,0.0020416,0.0005138,0,3856975,0 SPACEBEE-104,1 48890U 21059M   23069.84929552  .00051380  00000-0  20416-2 0  9992,2 48890  97.5811 204.8937 0008080 261.0438  98.9885 15.25104583 94379,2021-059M,48890,6868.608,94.42,496.023,484.924,0,
GENERATED VIA SPACETRACK.ORG API,18 SPCS,48890,SPACEBEE-104,PAYLOAD,U,21059M,2023/3/10 21:57,925920,15.2511134,0.0008092,97.5812,204.9601,260.8623,99.1699,0,999,9438,0.001979,0.00049802,0,3857097,0 SPACEBEE-104,1 48890U 21059M   23069.91490655  .00049802  00000-0  19790-2 0  9996,2 48890  97.5812 204.9601 0008092 260.8623  99.1699 15.25111340 94381,2021-059M,48890,6868.588,94.419,496.011,484.895,0,
GENERATED VIA SPACETRACK.ORG API,18 SPCS,48890,SPACEBEE-104,PAYLOAD,U,21059M,2023/3/11 8:58,764928,15.25160533,0.0008027,97.5812,205.4249,258.2791,101.7546,0,999,9445,0.001756,0.00044213,0,3857581,0 SPACEBEE-104,1 48890U 21059M   23070.37417552  .00044213  00000-0  17560-2 0  9997,2 48890  97.5812 205.4249 0008027 258.2791 101.7546 15.25160533 94457,2021-059M,48890,6868.44,94.416,495.819,484.792,0,
GENERATED VIA SPACETRACK.ORG API,18 SPCS,48890,SPACEBEE-104,PAYLOAD,U,21059M,2023/3/11 20:00,441856,15.2520167,0.0007987,97.5808,205.8907,257.6921,102.3422,0,999,9452,0.0017391,0.00043838,0,3857847,0 SPACEBEE-104,1 48890U 21059M   23070.83343104  .00043838  00000-0  17391-2 0  9993,2 48890  97.5808 205.8907 0007987 257.6921 102.3422 15.25201670 94525,2021-059M,48890,6868.317,94.414,495.668,484.696,0,
